SL-16 R/B               
1 24298U 96051B   25307.67803077 -.00000085  00000+0 -19494-4 0  9996
2 24298  70.7590  81.9602 0017517 311.2268  48.7341 14.12392263503856
ORBVIEW 2 (SEASTAR)     
1 24883U 97037A   25308.29769055  .00000347  00000+0  13705-3 0  9994
2 24883  98.8444 104.4101 0003217  77.7565 282.3980 14.35371292490489
SL-16 R/B               
1 25400U 98043G   25308.27784833  .00000097  00000+0  59427-4 0  9991
2 25400  98.8058 255.8936 0010314  24.1763 335.9899 14.26010530421118
SL-16 R/B               
1 25407U 98045B   25308.12787244  .00000230  00000+0  14038-3 0  9990
2 25407  71.0102  85.6224 0008968 228.6343 131.4010 14.16167312409327
ISS (ZARYA)             
1 25544U 98067A   25308.16441419  .00010829  00000+0  19922-3 0  9993
2 25544  51.6336 333.4485 0005035  15.3367 344.7773 15.49739341536874
CZ-4B R/B               
1 25732U 99025C   25308.15975043  .00000095  00000+0  66787-4 0  9997
2 25732  98.6830 350.2914 0036807 347.6646  80.1823 14.18228725370371
OKEAN-O                 
1 25860U 99039A   25308.12035603  .00000908  00000+0  12683-3 0  9998
2 25860  97.9661   4.1469 0001698  73.6308 286.5090 14.80060781415810
SL-16 R/B               
1 25861U 99039B   25308.15274862  .00000714  00000+0  97913-4 0  9999
2 25861  98.0183   2.2911 0013730 308.1102  51.8871 14.81500579418279
DELTA 2 R/B             
1 25876U 99041E   25308.11843151  .00000960  00000+0  19356-3 0  9994
2 25876  51.7634  82.5943 0504730 337.9496  20.0390 14.11262397345290
HELIOS 1B               
1 25977U 99064A   25308.18302770  .00002284  00000+0  26133-3 0  9997
2 25977  98.1760 201.7109 0002521  95.3618 264.7885 14.87037552666601
TERRA                   
1 25994U 99068A   25308.24428927  .00000603  00000+0  13229-3 0  9995
2 25994  97.9805   1.3293 0001772 184.8470 247.8953 14.60883010376764
SL-16 R/B               
1 26070U 00006B   25308.18142256  .00000262  00000+0  15719-3 0  9993
2 26070  71.0042   1.7327 0016299   4.5324 355.5944 14.15799942330794
