CCSDS_OMM_VERS = 2.0
CREATION_DATE  = 
ORIGINATOR     = 

OBJECT_NAME    = SL-16 R/B
OBJECT_ID      = 1996-051B
CENTER_NAME    = EARTH
REF_FRAME      = TEME
TIME_SYSTEM    = UTC
MEAN_ELEMENT_THEORY = SGP/SGP4

EPOCH          = 2025-11-03T16:16:21.858528
MEAN_MOTION    = 14.12392263
ECCENTRICITY   = .00175178
INCLINATION    = 70.7590
RA_OF_ASC_NODE = 81.9602
ARG_OF_PERICENTER = 311.2268
MEAN_ANOMALY   = 48.7341

EPHEMERIS_TYPE = 0
CLASSIFICATION_TYPE = U
NORAD_CAT_ID   = 24298
ELEMENT_SET_NO = 999
REV_AT_EPOCH   = 50385
BSTAR          = -.19493759E-4
MEAN_MOTION_DOT = -.85E-6
MEAN_MOTION_DDOT = 0

CCSDS_OMM_VERS = 2.0
CREATION_DATE  = 
ORIGINATOR     = 

OBJECT_NAME    = ORBVIEW 2 (SEASTAR)
OBJECT_ID      = 1997-037A
CENTER_NAME    = EARTH
REF_FRAME      = TEME
TIME_SYSTEM    = UTC
MEAN_ELEMENT_THEORY = SGP/SGP4

EPOCH          = 2025-11-04T07:08:40.463520
MEAN_MOTION    = 14.35371292
ECCENTRICITY   = .00032171
INCLINATION    = 98.8444
RA_OF_ASC_NODE = 104.4101
ARG_OF_PERICENTER = 77.7565
MEAN_ANOMALY   = 282.3980

EPHEMERIS_TYPE = 0
CLASSIFICATION_TYPE = U
NORAD_CAT_ID   = 24883
ELEMENT_SET_NO = 999
REV_AT_EPOCH   = 49048
BSTAR          = .13704527E-3
MEAN_MOTION_DOT = .347E-5
MEAN_MOTION_DDOT = 0

CCSDS_OMM_VERS = 2.0
CREATION_DATE  = 
ORIGINATOR     = 

OBJECT_NAME    = SL-16 R/B
OBJECT_ID      = 1998-043G
CENTER_NAME    = EARTH
REF_FRAME      = TEME
TIME_SYSTEM    = UTC
MEAN_ELEMENT_THEORY = SGP/SGP4

EPOCH          = 2025-11-04T06:40:06.095712
MEAN_MOTION    = 14.26010530
ECCENTRICITY   = .00103149
INCLINATION    = 98.8058
RA_OF_ASC_NODE = 255.8936
ARG_OF_PERICENTER = 24.1763
MEAN_ANOMALY   = 335.9899

EPHEMERIS_TYPE = 0
CLASSIFICATION_TYPE = U
NORAD_CAT_ID   = 25400
ELEMENT_SET_NO = 999
REV_AT_EPOCH   = 42111
BSTAR          = .59426774E-4
MEAN_MOTION_DOT = .97E-6
MEAN_MOTION_DDOT = 0

CCSDS_OMM_VERS = 2.0
CREATION_DATE  = 
ORIGINATOR     = 

OBJECT_NAME    = SL-16 R/B
OBJECT_ID      = 1998-045B
CENTER_NAME    = EARTH
REF_FRAME      = TEME
TIME_SYSTEM    = UTC
MEAN_ELEMENT_THEORY = SGP/SGP4

EPOCH          = 2025-11-04T03:04:08.178816
MEAN_MOTION    = 14.16167312
ECCENTRICITY   = .00089682
INCLINATION    = 71.0102
RA_OF_ASC_NODE = 85.6224
ARG_OF_PERICENTER = 228.6343
MEAN_ANOMALY   = 131.4010

EPHEMERIS_TYPE = 0
CLASSIFICATION_TYPE = U
NORAD_CAT_ID   = 25407
ELEMENT_SET_NO = 999
REV_AT_EPOCH   = 40932
BSTAR          = .14037793E-3
MEAN_MOTION_DOT = .23E-5
MEAN_MOTION_DDOT = 0

CCSDS_OMM_VERS = 2.0
CREATION_DATE  = 
ORIGINATOR     = 

OBJECT_NAME    = ISS (ZARYA)
OBJECT_ID      = 1998-067A
CENTER_NAME    = EARTH
REF_FRAME      = TEME
TIME_SYSTEM    = UTC
MEAN_ELEMENT_THEORY = SGP/SGP4

EPOCH          = 2025-11-04T03:56:45.386016
MEAN_MOTION    = 15.49739341
ECCENTRICITY   = .00050356
INCLINATION    = 51.6336
RA_OF_ASC_NODE = 333.4485
ARG_OF_PERICENTER = 15.3367
MEAN_ANOMALY   = 344.7773

EPHEMERIS_TYPE = 0
CLASSIFICATION_TYPE = U
NORAD_CAT_ID   = 25544
ELEMENT_SET_NO = 999
REV_AT_EPOCH   = 53687
BSTAR          = .19921566E-3
MEAN_MOTION_DOT = .10829E-3
MEAN_MOTION_DDOT = 0

CCSDS_OMM_VERS = 2.0
CREATION_DATE  = 
ORIGINATOR     = 

OBJECT_NAME    = CZ-4B R/B
OBJECT_ID      = 1999-025C
CENTER_NAME    = EARTH
REF_FRAME      = TEME
TIME_SYSTEM    = UTC
MEAN_ELEMENT_THEORY = SGP/SGP4

EPOCH          = 2025-11-04T03:50:02.437152
MEAN_MOTION    = 14.18228725
ECCENTRICITY   = .00368072
INCLINATION    = 98.6830
RA_OF_ASC_NODE = 350.2914
ARG_OF_PERICENTER = 347.6646
MEAN_ANOMALY   = 80.1823

EPHEMERIS_TYPE = 0
CLASSIFICATION_TYPE = U
NORAD_CAT_ID   = 25732
ELEMENT_SET_NO = 999
REV_AT_EPOCH   = 37037
BSTAR          = .66787286E-4
MEAN_MOTION_DOT = .95E-6
MEAN_MOTION_DDOT = 0

CCSDS_OMM_VERS = 2.0
CREATION_DATE  = 
ORIGINATOR     = 

OBJECT_NAME    = OKEAN-O
OBJECT_ID      = 1999-039A
CENTER_NAME    = EARTH
REF_FRAME      = TEME
TIME_SYSTEM    = UTC
MEAN_ELEMENT_THEORY = SGP/SGP4

EPOCH          = 2025-11-04T02:53:18.760992
MEAN_MOTION    = 14.80060781
ECCENTRICITY   = .0001698
INCLINATION    = 97.9661
RA_OF_ASC_NODE = 4.1469
ARG_OF_PERICENTER = 73.6308
MEAN_ANOMALY   = 286.5090

EPHEMERIS_TYPE = 0
CLASSIFICATION_TYPE = U
NORAD_CAT_ID   = 25860
ELEMENT_SET_NO = 999
REV_AT_EPOCH   = 41581
BSTAR          = .12682834E-3
MEAN_MOTION_DOT = .908E-5
MEAN_MOTION_DDOT = 0

CCSDS_OMM_VERS = 2.0
CREATION_DATE  = 
ORIGINATOR     = 

OBJECT_NAME    = SL-16 R/B
OBJECT_ID      = 1999-039B
CENTER_NAME    = EARTH
REF_FRAME      = TEME
TIME_SYSTEM    = UTC
MEAN_ELEMENT_THEORY = SGP/SGP4

EPOCH          = 2025-11-04T03:39:57.480768
MEAN_MOTION    = 14.81500579
ECCENTRICITY   = .00137301
INCLINATION    = 98.0183
RA_OF_ASC_NODE = 2.2911
ARG_OF_PERICENTER = 308.1102
MEAN_ANOMALY   = 51.8871

EPHEMERIS_TYPE = 0
CLASSIFICATION_TYPE = U
NORAD_CAT_ID   = 25861
ELEMENT_SET_NO = 999
REV_AT_EPOCH   = 41827
BSTAR          = .97912839E-4
MEAN_MOTION_DOT = .714E-5
MEAN_MOTION_DDOT = 0

CCSDS_OMM_VERS = 2.0
CREATION_DATE  = 
ORIGINATOR     = 

OBJECT_NAME    = DELTA 2 R/B
OBJECT_ID      = 1999-041E
CENTER_NAME    = EARTH
REF_FRAME      = TEME
TIME_SYSTEM    = UTC
MEAN_ELEMENT_THEORY = SGP/SGP4

EPOCH          = 2025-11-04T02:50:32.482464
MEAN_MOTION    = 14.11262397
ECCENTRICITY   = .05047302
INCLINATION    = 51.7634
RA_OF_ASC_NODE = 82.5943
ARG_OF_PERICENTER = 337.9496
MEAN_ANOMALY   = 20.0390

EPHEMERIS_TYPE = 0
CLASSIFICATION_TYPE = U
NORAD_CAT_ID   = 25876
ELEMENT_SET_NO = 999
REV_AT_EPOCH   = 34529
BSTAR          = .19356236E-3
MEAN_MOTION_DOT = .96E-5
MEAN_MOTION_DDOT = 0

CCSDS_OMM_VERS = 2.0
CREATION_DATE  = 
ORIGINATOR     = 

OBJECT_NAME    = HELIOS 1B
OBJECT_ID      = 1999-064A
CENTER_NAME    = EARTH
REF_FRAME      = TEME
TIME_SYSTEM    = UTC
MEAN_ELEMENT_THEORY = SGP/SGP4

EPOCH          = 2025-11-04T04:23:33.593280
MEAN_MOTION    = 14.87037552
ECCENTRICITY   = .00025211
INCLINATION    = 98.1760
RA_OF_ASC_NODE = 201.7109
ARG_OF_PERICENTER = 95.3618
MEAN_ANOMALY   = 264.7885

EPHEMERIS_TYPE = 0
CLASSIFICATION_TYPE = U
NORAD_CAT_ID   = 25977
ELEMENT_SET_NO = 999
REV_AT_EPOCH   = 66660
BSTAR          = .26132963E-3
MEAN_MOTION_DOT = .2284E-4
MEAN_MOTION_DDOT = 0

CCSDS_OMM_VERS = 2.0
CREATION_DATE  = 
ORIGINATOR     = 

OBJECT_NAME    = TERRA
OBJECT_ID      = 1999-068A
CENTER_NAME    = EARTH
REF_FRAME      = TEME
TIME_SYSTEM    = UTC
MEAN_ELEMENT_THEORY = SGP/SGP4

EPOCH          = 2025-11-04T05:51:46.592928
MEAN_MOTION    = 14.60883010
ECCENTRICITY   = .00017724
INCLINATION    = 97.9805
RA_OF_ASC_NODE = 1.3293
ARG_OF_PERICENTER = 184.8470
MEAN_ANOMALY   = 247.8953

EPHEMERIS_TYPE = 0
CLASSIFICATION_TYPE = U
NORAD_CAT_ID   = 25994
ELEMENT_SET_NO = 999
REV_AT_EPOCH   = 37676
BSTAR          = .13228785E-3
MEAN_MOTION_DOT = .603E-5
MEAN_MOTION_DDOT = 0

CCSDS_OMM_VERS = 2.0
CREATION_DATE  = 
ORIGINATOR     = 

OBJECT_NAME    = SL-16 R/B
OBJECT_ID      = 2000-006B
CENTER_NAME    = EARTH
REF_FRAME      = TEME
TIME_SYSTEM    = UTC
MEAN_ELEMENT_THEORY = SGP/SGP4

EPOCH          = 2025-11-04T04:21:14.909184
MEAN_MOTION    = 14.15799942
ECCENTRICITY   = .00162992
INCLINATION    = 71.0042
RA_OF_ASC_NODE = 1.7327
ARG_OF_PERICENTER = 4.5324
MEAN_ANOMALY   = 355.5944

EPHEMERIS_TYPE = 0
CLASSIFICATION_TYPE = U
NORAD_CAT_ID   = 26070
ELEMENT_SET_NO = 999
REV_AT_EPOCH   = 33079
BSTAR          = .1571861E-3
MEAN_MOTION_DOT = .262E-5
MEAN_MOTION_DDOT = 0

